start=new Date('2022-09-19T00:00:00.000Z').valueOf();
sats=[{"ECCENTRICITY":"0.00015530","SITE":"AFETR","OBJECT_ID":"2021-017BG","RA_OF_ASC_NODE":"143.2713","EPOCH":"2022-09-18T19:54:57.461472","COUNTRY_CODE":"US","FILE":"3577422","SEMIMAJOR_AXIS":"6925.334","GP_ID":"212963472","INCLINATION":"53.0555","REF_FRAME":"TEME","REV_AT_EPOCH":"8665","CLASSIFICATION_TYPE":"U","MEAN_MOTION":"15.06404860","CENTER_NAME":"EARTH","BSTAR":"0.00011568000000","MEAN_MOTION_DDOT":"0.0000000000000","APOAPSIS":"548.274","ELEMENT_SET_NO":"999","PERIOD":"95.592","TIME_SYSTEM":"UTC","OBJECT_NAME":"STARLINK-2209","MEAN_ELEMENT_THEORY":"SGP4","TLE_LINE1":"1 47776U 21017BG  22261.82983173  .00001442  00000-0  11568-3 0  9991","EPHEMERIS_TYPE":"0","DECAY_DATE":null,"PERIAPSIS":"546.123","ARG_OF_PERICENTER":"65.5794","RCS_SIZE":"LARGE","MEAN_ANOMALY":"294.5356","TLE_LINE2":"2 47776  53.0555 143.2713 0001553  65.5794 294.5356 15.06404860 86650","LAUNCH_DATE":"2021-03-04","OBJECT_TYPE":"PAYLOAD","MEAN_MOTION_DOT":"0.00001442","NORAD_CAT_ID":"47776"},{"TIME_SYSTEM":"UTC","APOAPSIS":"548.329","PERIOD":"95.591","ELEMENT_SET_NO":"999","OBJECT_NAME":"STARLINK-2210","CENTER_NAME":"EARTH","BSTAR":"0.00081994000000","MEAN_MOTION_DDOT":"0.0000000000000","MEAN_MOTION":"15.06412847","CLASSIFICATION_TYPE":"U","GP_ID":"212964221","INCLINATION":"53.0524","REF_FRAME":"TEME","REV_AT_EPOCH":"8665","COUNTRY_CODE":"US","FILE":"3577422","SEMIMAJOR_AXIS":"6925.309","EPOCH":"2022-09-18T20:00:16.241184","SITE":"AFETR","RA_OF_ASC_NODE":"143.2565","OBJECT_ID":"2021-017BH","ECCENTRICITY":"0.00016680","NORAD_CAT_ID":"47777","MEAN_MOTION_DOT":"0.00011957","TLE_LINE2":"2 47777  53.0524 143.2565 0001668  60.2508 299.8646 15.06412847 86658","LAUNCH_DATE":"2021-03-04","OBJECT_TYPE":"PAYLOAD","RCS_SIZE":"LARGE","MEAN_ANOMALY":"299.8646","DECAY_DATE":null,"PERIAPSIS":"546.019","ARG_OF_PERICENTER":"60.2508","EPHEMERIS_TYPE":"0","TLE_LINE1":"1 47777U 21017BH  22261.83352131  .00011957  00000-0  81994-3 0  9999","MEAN_ELEMENT_THEORY":"SGP4"},{"NORAD_CAT_ID":"47778","MEAN_MOTION_DOT":"0.00003818","OBJECT_TYPE":"PAYLOAD","TLE_LINE2":"2 47778  53.0548 143.0952 0001266  78.7893 281.3238 15.06399141 86652","LAUNCH_DATE":"2021-03-04","MEAN_ANOMALY":"281.3238","RCS_SIZE":"LARGE","ARG_OF_PERICENTER":"78.7893","DECAY_DATE":null,"PERIAPSIS":"546.339","EPHEMERIS_TYPE":"0","TLE_LINE1":"1 47778U 21017BJ  22261.86668890  .00003818  00000-0  27509-3 0  9994","MEAN_ELEMENT_THEORY":"SGP4","OBJECT_NAME":"STARLINK-2211","APOAPSIS":"548.093","TIME_SYSTEM":"UTC","PERIOD":"95.592","ELEMENT_SET_NO":"999","MEAN_MOTION_DDOT":"0.0000000000000","CENTER_NAME":"EARTH","BSTAR":"0.00027509000000","MEAN_MOTION":"15.06399141","CLASSIFICATION_TYPE":"U","REF_FRAME":"TEME","REV_AT_EPOCH":"8665","GP_ID":"212964966","INCLINATION":"53.0548","FILE":"3577422","SEMIMAJOR_AXIS":"6925.351","COUNTRY_CODE":"US","EPOCH":"2022-09-18T20:48:01.920960","OBJECT_ID":"2021-017BJ","SITE":"AFETR","RA_OF_ASC_NODE":"143.0952","ECCENTRICITY":"0.00012660"},{"MEAN_MOTION_DOT":"0.00003811","NORAD_CAT_ID":"47779","RCS_SIZE":"LARGE","MEAN_ANOMALY":"281.5230","LAUNCH_DATE":"2021-03-04","TLE_LINE2":"2 47779  53.0550 128.2163 0001193  78.5896 281.5230 15.12369188 86878","OBJECT_TYPE":"PAYLOAD","EPHEMERIS_TYPE":"0","PERIAPSIS":"528.155","DECAY_DATE":null,"ARG_OF_PERICENTER":"78.5896","MEAN_ELEMENT_THEORY":"SGP4","TLE_LINE1":"1 47779U 21017BK  22261.84800230  .00003811  00000-0  23404-3 0  9992","BSTAR":"0.00023404000000","CENTER_NAME":"EARTH","MEAN_MOTION_DDOT":"0.0000000000000","APOAPSIS":"529.803","PERIOD":"95.215","TIME_SYSTEM":"UTC","ELEMENT_SET_NO":"999","OBJECT_NAME":"STARLINK-2212","INCLINATION":"53.0550","GP_ID":"212965219","REV_AT_EPOCH":"8687","REF_FRAME":"TEME","CLASSIFICATION_TYPE":"U","MEAN_MOTION":"15.12369188","EPOCH":"2022-09-18T20:21:07.398720","COUNTRY_CODE":"US","SEMIMAJOR_AXIS":"6907.114","FILE":"3577422","ECCENTRICITY":"0.00011930","SITE":"AFETR","OBJECT_ID":"2021-017BK","RA_OF_ASC_NODE":"128.2163"},{"EPOCH":"2022-09-18T21:25:11.650080","COUNTRY_CODE":"US","FILE":"3577422","SEMIMAJOR_AXIS":"6925.434","ECCENTRICITY":"0.00013450","OBJECT_ID":"2021-017BL","SITE":"AFETR","RA_OF_ASC_NODE":"142.9724","CENTER_NAME":"EARTH","BSTAR":"0.00058867000000","MEAN_MOTION_DDOT":"0.0000000000000","PERIOD":"95.594","APOAPSIS":"548.230","ELEMENT_SET_NO":"999","TIME_SYSTEM":"UTC","OBJECT_NAME":"STARLINK-2213","GP_ID":"212963972","INCLINATION":"53.0550","REF_FRAME":"TEME","REV_AT_EPOCH":"8669","MEAN_MOTION":"15.06372241","CLASSIFICATION_TYPE":"U","EPHEMERIS_TYPE":"0","DECAY_DATE":null,"PERIAPSIS":"546.367","ARG_OF_PERICENTER":"70.4145","MEAN_ELEMENT_THEORY":"SGP4","TLE_LINE1":"1 47780U 21017BL  22261.89249595  .00008491  00000-0  58867-3 0  9990","MEAN_MOTION_DOT":"0.00008491","NORAD_CAT_ID":"47780","RCS_SIZE":"LARGE","MEAN_ANOMALY":"289.6989","TLE_LINE2":"2 47780  53.0550 142.9724 0001345  70.4145 289.6989 15.06372241 86690","LAUNCH_DATE":"2021-03-04","OBJECT_TYPE":"PAYLOAD"},{"GP_ID":"212963722","INCLINATION":"53.0551","REF_FRAME":"TEME","REV_AT_EPOCH":"8664","CLASSIFICATION_TYPE":"U","MEAN_MOTION":"15.06396498","CENTER_NAME":"EARTH","BSTAR":"0.00009255800000","MEAN_MOTION_DDOT":"0.0000000000000","APOAPSIS":"548.134","PERIOD":"95.592","TIME_SYSTEM":"UTC","ELEMENT_SET_NO":"999","OBJECT_NAME":"STARLINK-2223","ECCENTRICITY":"0.00013140","OBJECT_ID":"2021-017BM","SITE":"AFETR","RA_OF_ASC_NODE":"143.1204","EPOCH":"2022-09-18T20:37:25.190112","COUNTRY_CODE":"US","FILE":"3577422","SEMIMAJOR_AXIS":"6925.359","RCS_SIZE":"LARGE","MEAN_ANOMALY":"283.7326","TLE_LINE2":"2 47781  53.0551 143.1204 0001314  76.3809 283.7326 15.06396498 86641","LAUNCH_DATE":"2021-03-04","OBJECT_TYPE":"PAYLOAD","MEAN_MOTION_DOT":"0.00001097","NORAD_CAT_ID":"47781","MEAN_ELEMENT_THEORY":"SGP4","TLE_LINE1":"1 47781U 21017BM  22261.85931933  .00001097  00000-0  92558-4 0  9992","EPHEMERIS_TYPE":"0","DECAY_DATE":null,"PERIAPSIS":"546.314","ARG_OF_PERICENTER":"76.3809"},{"SITE":"AFETR","OBJECT_ID":"2021-018A","RA_OF_ASC_NODE":"183.6407","ECCENTRICITY":"0.00015280","COUNTRY_CODE":"US","SEMIMAJOR_AXIS":"6925.363","FILE":"3577422","EPOCH":"2022-09-18T17:52:52.638816","CLASSIFICATION_TYPE":"U","MEAN_MOTION":"15.06395151","INCLINATION":"53.0550","GP_ID":"212964467","REV_AT_EPOCH":"8548","REF_FRAME":"TEME","PERIOD":"95.592","APOAPSIS":"548.287","TIME_SYSTEM":"UTC","ELEMENT_SET_NO":"999","OBJECT_NAME":"STARLINK-2257","BSTAR":"0.00003722700000","CENTER_NAME":"EARTH","MEAN_MOTION_DDOT":"0.0000000000000","TLE_LINE1":"1 47787U 21018A   22261.74505369  .00000273  00000-0  37227-4 0  9994","MEAN_ELEMENT_THEORY":"SGP4","PERIAPSIS":"546.170","DECAY_DATE":null,"ARG_OF_PERICENTER":"83.2452","EPHEMERIS_TYPE":"0","LAUNCH_DATE":"2021-03-11","TLE_LINE2":"2 47787  53.0550 183.6407 0001528  83.2452 276.8711 15.06395151 85485","OBJECT_TYPE":"PAYLOAD","RCS_SIZE":"LARGE","MEAN_ANOMALY":"276.8711","NORAD_CAT_ID":"47787","MEAN_MOTION_DOT":"0.00000273"},{"EPHEMERIS_TYPE":"0","DECAY_DATE":null,"PERIAPSIS":"546.139","ARG_OF_PERICENTER":"62.4610","MEAN_ELEMENT_THEORY":"SGP4","TLE_LINE1":"1 47788U 21018B   22261.88926550  .00003605  00000-0  26084-3 0  9999","MEAN_MOTION_DOT":"0.00003605","NORAD_CAT_ID":"47788","RCS_SIZE":"LARGE","MEAN_ANOMALY":"297.6539","TLE_LINE2":"2 47788  53.0546 158.0041 0001582  62.4610 297.6539 15.06393078 85874","LAUNCH_DATE":"2021-03-11","OBJECT_TYPE":"PAYLOAD","EPOCH":"2022-09-18T21:20:32.539200","COUNTRY_CODE":"US","FILE":"3577422","SEMIMAJOR_AXIS":"6925.370","ECCENTRICITY":"0.00015820","RA_OF_ASC_NODE":"158.0041","SITE":"AFETR","OBJECT_ID":"2021-018B","CENTER_NAME":"EARTH","BSTAR":"0.00026084000000","MEAN_MOTION_DDOT":"0.0000000000000","PERIOD":"95.593","APOAPSIS":"548.330","ELEMENT_SET_NO":"999","TIME_SYSTEM":"UTC","OBJECT_NAME":"STARLINK-2314","GP_ID":"212964720","INCLINATION":"53.0546","REF_FRAME":"TEME","REV_AT_EPOCH":"8587","CLASSIFICATION_TYPE":"U","MEAN_MOTION":"15.06393078"},{"MEAN_ELEMENT_THEORY":"SGP4","TLE_LINE1":"1 47789U 21018C   22261.87221674  .00000765  00000-0  70225-4 0  9995","EPHEMERIS_TYPE":"0","DECAY_DATE":null,"PERIAPSIS":"546.215","ARG_OF_PERICENTER":"95.8842","RCS_SIZE":"LARGE","MEAN_ANOMALY":"264.2309","TLE_LINE2":"2 47789  53.0543 163.0799 0001427  95.8842 264.2309 15.06403474 85791","LAUNCH_DATE":"2021-03-11","OBJECT_TYPE":"PAYLOAD","MEAN_MOTION_DOT":"0.00000765","NORAD_CAT_ID":"47789","ECCENTRICITY":"0.00014270","SITE":"AFETR","RA_OF_ASC_NODE":"163.0799","OBJECT_ID":"2021-018C","EPOCH":"2022-09-18T20:55:59.526336","COUNTRY_CODE":"US","FILE":"3577422","SEMIMAJOR_AXIS":"6925.338","GP_ID":"212963473","INCLINATION":"53.0543","REF_FRAME":"TEME","REV_AT_EPOCH":"8579","CLASSIFICATION_TYPE":"U","MEAN_MOTION":"15.06403474","CENTER_NAME":"EARTH","BSTAR":"0.00007022500000","MEAN_MOTION_DDOT":"0.0000000000000","APOAPSIS":"548.191","ELEMENT_SET_NO":"999","PERIOD":"95.592","TIME_SYSTEM":"UTC","OBJECT_NAME":"STARLINK-2315"},{"ECCENTRICITY":"0.00014260","RA_OF_ASC_NODE":"153.1893","SITE":"AFETR","OBJECT_ID":"2021-018D","EPOCH":"2022-09-18T20:20:09.961728","COUNTRY_CODE":"US","SEMIMAJOR_AXIS":"6925.353","FILE":"3577422","INCLINATION":"53.0543","GP_ID":"212964222","REV_AT_EPOCH":"8593","REF_FRAME":"TEME","CLASSIFICATION_TYPE":"U","MEAN_MOTION":"15.06398588","BSTAR":"0.00018539000000","CENTER_NAME":"EARTH","MEAN_MOTION_DDOT":"0.0000000000000","ELEMENT_SET_NO":"999","APOAPSIS":"548.205","PERIOD":"95.592","TIME_SYSTEM":"UTC","OBJECT_NAME":"STARLINK-2319","MEAN_ELEMENT_THEORY":"SGP4","TLE_LINE1":"1 47790U 21018D   22261.84733752  .00002481  00000-0  18539-3 0  9995","EPHEMERIS_TYPE":"0","PERIAPSIS":"546.230","DECAY_DATE":null,"ARG_OF_PERICENTER":"69.3152","RCS_SIZE":"LARGE","MEAN_ANOMALY":"290.7989","LAUNCH_DATE":"2021-03-11","TLE_LINE2":"2 47790  53.0543 153.1893 0001426  69.3152 290.7989 15.06398588 85930","OBJECT_TYPE":"PAYLOAD","MEAN_MOTION_DOT":"0.00002481","NORAD_CAT_ID":"47790"}];
